#dP2023  6 18 12  0  0.00000000      96 __u+U ITR00 EXT  IAC
## 2267  43200.00000000   900.00000000 60113 0.5000000000000
+  118   C06C07C08C09C10C11C12C14C16C19C20C21C22C23C24C25C26
+        C27C28C29C30C32C33C34C35C36C37C38C39C40C41C42C43C44
+        C45C46E02E03E04E05E07E08E09E10E11E12E13E14E15E18E19
+        E21E24E25E26E27E30E31E33E34E36G01G02G03G04G05G06G07
+        G08G09G10G11G12G13G14G15G16G17G18G19G20G21G22G23G24
+        G25G26G27G28G29G30G31G32J02J03J04R01R02R03R04R05R07
+        R08R09R11R12R13R14R15R16R17R18R19R20R21R22R24R25  0
++         9 11 10  9 11 10 10  8  9  9  7  9  8  8  9  8  8
++         8  8  8  8  8  8  9  9  8  8 10  9  9  9  9  8  9
++         7  7  7  8  7  7  7  7  8  6  7  6  6  7  7  7  7
++         8  7  8  7  6  7  8  7  7  8  6  6  7  7  7  6  8
++         6  7  7  7  6  7  7  7  7  7  7  8  8  6  8  8  6
++         7  7  7  7  7  8  7  7  8  8  9  7  7  8  9  8  9
++         7  6  8  7  9  8  7  6  8  9  7  9  8  7  8  7  0
%c M  cc GPS ccc cccc cccc cccc cccc ccccc ccccc ccccc ccccc
%c cc cc ccc ccc cccc cccc cccc cccc ccccc ccccc ccccc ccccc
%f  0.0000000  0.000000000  0.00000000000  0.000000000000000
%f  0.0000000  0.000000000  0.00000000000  0.000000000000000
%i    0    0    0    0      0      0      0      0         0
%i    0    0    0    0      0      0      0      0         0
/* IAC                                ULTRA-RAPID PREDICTION
/* S/V CLOCKS ARE ALIGNED TO GNSS TIME                      
/* G:C1WC2W R:C1PC2P E:C1XC5X C:C2IC6I J:C1CC2S             
/* PCV:IGS20_2247 OL/AL:FES2004  NONE     YN ORB:CoN CLK:CoN
*  2023 06 19  6 45  0.00000000
PC06 -17258.792270  26068.981770 -28374.877454   -175.416895
PC07  -9041.975420  40782.055625  -4880.192437   -194.749440
PC08   2098.085424  26573.218724  32719.197743    455.012195
PC09  -6967.097816  25485.719908 -32540.207623    516.948071
PC10  -3265.408923  41705.066129   1703.413853    -90.145921
PC11  -6548.859719 -13899.755924 -23235.206513    681.853265
PC12  13091.387751 -18796.937023 -15916.032877    723.701770
PC14  -7186.323817 -24614.606903  11104.675089    432.566681
PC16 -19084.493018  25478.131947 -27559.115261     37.721304
PC19  12090.539589  17283.874835 -18231.943823   -925.484744
PC20   2129.989356  27534.131624  -3855.657222    493.378500
PC21   9973.230272 -21964.958203 -14042.083252   -924.965014
PC22  15623.340182  -3495.074274 -22861.733894   -434.251127
PC23 -24596.616524  -4386.458348 -12420.571276   -962.593594
PC24  -5807.513294 -19553.953462  19029.578600     79.006545
PC25 -22509.419427 -16027.944917   3820.111592    150.408926
PC26  11989.314468 -11655.050181  22333.819916   -136.836283
PC27 -19737.164902  17628.749132   8846.385946    157.313575
PC28 -25688.715552   7933.266342  -7470.616809    116.910453
PC29  16569.021566   7412.576070  21185.997435    136.010166
PC30  -2705.019002  18445.574487  20758.659458     -1.343991
PC32  -9877.264548  21931.138571  14147.456375   -547.281662
PC33 -12189.410842 -17337.484831  18170.872954   -897.748014
PC34   1217.377830 -18032.250719 -21273.881704    196.341325
PC35  25361.838167  -8431.557267   7952.548369    605.078623
PC36  21754.853524  16883.116039  -4505.813075   -375.123777
PC37 -13204.794501  10646.634933 -22138.938817   -786.416474
PC38  -6353.591768  23771.001670  34295.841064     86.081288
PC39 -23106.598432  26092.181475 -23837.362709     -3.394391
PC40 -14671.181949  38711.550450  -7301.611260    -26.699855
PC41 -15714.350724   2689.017595  22954.899558   -918.296978
PC42  -1335.185201 -27777.916294   2559.397668   -643.763078
PC43 -15920.863327  -8188.939666 -21424.426483     26.861957
PC44  19119.464702 -18362.130538  -8691.745361    142.687193
PC45  24429.644887   4059.198543  12887.352584   -112.174741
PC46   7393.783742  19754.588320 -18284.460439    -62.618521
PE02 -18033.825382    -72.817892 -23471.541424     44.906311
PE03 -21497.302218  11470.159634  16797.737144    -27.811681
PE04  15992.131521 -24911.711458    205.026105   -148.047379
PE05 -14479.744689  -8933.981405  24229.439170    -56.630720
PE07  -1195.440844  24039.720014 -17209.921848    -53.753311
PE08 -16153.644009  24793.411057    151.565515   -101.294140
PE09   1390.938291 -24081.014663  17175.605059    -55.271852
PE10   4972.363086 -15635.592854 -24650.775483   -542.296752
PE11  -7490.918882 -15861.162541 -23862.520531   2262.572749
PE12  15558.086759 -13126.883344 -21493.374440   -585.523564
PE13   6637.172213  15848.519240  24096.633889    -19.290805
PE14 -21499.309021   6203.039244 -15552.240211    258.287298
PE15 -15917.306060  12943.100143  21337.197689    -30.591062
PE18  21087.721244 -21609.672925   3195.927440    198.952515
PE19  21235.786773  -8933.539011 -18575.252430  -2266.189094
PE21  19165.710067  18655.709888  12679.024448   -535.846271
PE24  -8642.456512 -27506.973484   6647.936704   -163.120669
PE25 -19079.513363 -18940.030347 -12380.147543   -606.993327
PE26  25458.199836   9159.616686  12003.964383    138.423523
PE27   9246.301677  27469.301577  -6016.924034    -78.330163
PE30  -6518.588864  19617.423535 -21196.307729   -267.406378
PE31   6020.795936 -20006.614585  20977.063257   -526.197767
PE33  28877.405953  -2426.662364  -6015.319966   -442.971980
PE34 -28838.691949   2556.551157   6133.292422    -51.599865
PE36 -25010.879222  -9444.462091 -12720.521304    -73.454827
PG01 -14238.948480 -13607.565743 -18326.642692    177.501167
PG02  -8536.438531 -14090.029822 -20360.538997   -584.396579
PG03 -12951.914379 -23046.598944   3033.286780   -265.119512
PG04  -6888.650596 -14951.837306  20831.107811     72.328360
PG05   2870.991379  23367.680344  12002.449394   -131.671881
PG06 -22899.052519   5872.258249  12264.327734    584.220163
PG07 -25173.545045  -6966.770635   6542.215674    148.381610
PG08   2588.217137 -22109.600992 -14259.696456   -128.108765
PG09 -14713.181464  -5194.115335  21423.878140   -132.321650
PG10  15133.377041  -1887.569611 -21604.326371    -41.766793
PG11  -9622.067594  13269.961404  20898.722874   -241.397869
PG12   9500.526475  24847.614145    -40.533788   -390.396358
PG13 -11463.481916  21929.966109  -9537.295918    535.980612
PG14 -16686.762374  -1381.050334 -20635.095357     95.387667
PG15    967.351396  22251.691785 -14738.955224     50.215262
PG16   2818.980977 -21651.507318  14493.963704   -489.963276
PG17 -20086.020960  10419.814347 -13568.864165    718.829777
PG18  26029.846461   4840.059592   3021.988079   -313.351409
PG19 -20185.004731  15370.827617  -7506.810095    332.563614
PG20  -3761.961335  18379.911312  18904.384215    427.215056
PG21  -5823.727139 -14634.394944 -20962.492725    152.980642
PG22  18594.487927 -18396.233900  -3633.331548    500.147490
PG23  17911.517522  10793.076865 -16463.533521     34.613871
PG24  10274.859180  14795.198842 -19998.816782   -229.862580
PG25  16760.286970  17797.151232  10389.639274    450.764398
PG26  10420.117471 -12747.996340  20667.685305    238.704724
PG27  11997.602127 -23014.072706  -4739.850789     13.574399
PG28  23783.023441  -5896.616392  10224.564309     83.477029
PG29  12547.976449   8074.839797  21922.985015   -603.248923
PG30 -26408.946673    303.468483  -3826.013651   -510.069229
PG31  15376.395295 -11427.036213  18396.018706   -218.456067
PG32  19375.182656 -13116.583163 -12201.119629   -503.429208
PJ02 -20510.931263  23447.791587 -23761.585443     -0.641232
PJ03 -29501.935359  27274.203356  18149.195000      6.912317
PJ04 -27877.725375  28071.191222  20481.220721     95.578685
PR01   9267.232720 -20791.099782 -11526.008818     59.735152
PR02   1971.444143 -24487.561848   6795.091802    -22.670927
PR03  -6933.208387 -13861.448760  20290.034991     79.959038
PR04 -11518.504430   4080.336471  22422.721685    191.779724
PR05 -10155.503217  19865.171974  12398.505345    114.414727
PR07   7183.682339  13215.885808 -20572.943272     58.350362
PR08  11587.530660  -4333.553193 -22242.341839    -71.325724
PR09   8748.996494  17709.034833 -16070.125056    126.628458
PR11  19275.566952   7112.430583  15117.820547    -83.295449
PR12   7328.811152  -8251.293794  23025.724037     28.279125
PR13  -7094.693541 -17128.216597  17511.348429    -36.243528
PR14 -19258.675965 -16744.369041    171.714792     24.832589
PR15 -18843.175156  -6297.646883 -15980.147827     88.476475
PR16  -7452.773539   7927.196418 -23057.909526     15.795007
PR17 -15121.457686  -4634.758645 -19997.859890    640.335713
PR18 -24181.409346   4394.262009  -6911.926544     87.355047
PR19 -21845.898191  10123.798906   8407.083950   -236.790981
PR20  -4142.233244  11517.328315  22386.577611    -95.004739
PR21  16264.703752   3923.813282  19257.548575    -16.349351
PR22  24482.642606  -3937.766642   5975.887940     82.266139
PR24   2912.873599 -11955.777903 -22336.421997    -12.569624
PR25  14923.698879   5612.126738  19918.206039     58.938315
EOF
